{
  "type": "FeatureCollection",
  "features": [
    {
      "type": "Feature",
      "properties": {
        "norad_id": 66631,
        "name": "STARLINK-35965",
        "group": "last-30-days",
        "lat": -50.975634978255584,
        "lon": 157.49715408752397,
        "alt_km": 332.5254774225032,
        "timestamp": "2025-12-04T23:34:04.492273+00:00",
        "meta_object_name": "STARLINK-35965",
        "meta_object_id": "2025-271Q",
        "meta_epoch": "2025-12-04T07:12:21.034944",
        "meta_mean_motion": 15.81776671,
        "meta_eccentricity": 0.0001135,
        "meta_inclination": 53.1568,
        "meta_ra_of_asc_node": 228.6092,
        "meta_arg_of_pericenter": 128.5518,
        "meta_mean_anomaly": 231.5607,
        "meta_ephemeris_type": 0,
        "meta_classification_type": "U",
        "meta_norad_cat_id": 66631,
        "meta_element_set_no": 999,
        "meta_rev_at_epoch": 288,
        "meta_bstar": -0.0020618,
        "meta_mean_motion_dot": -0.004058,
        "meta_mean_motion_ddot": 0,
        "tle_line1": "1 66631U 25271Q   25338.30024346 -.00405800  00000+0 -20618-2 0  9999",
        "tle_line2": "2 66631  53.1568 228.6092 0001135 128.5518 231.5607 15.81776671  2882"
      },
      "geometry": {
        "type": "Point",
        "coordinates": [
          157.49715408752397,
          -50.975634978255584
        ]
      }
    },
    {
      "type": "Feature",
      "properties": {
        "norad_id": 66632,
        "name": "STARLINK-35973",
        "group": "last-30-days",
        "lat": -48.98004290325849,
        "lon": 165.6359796284562,
        "alt_km": 322.4071799775129,
        "timestamp": "2025-12-04T23:34:04.492284+00:00",
        "meta_object_name": "STARLINK-35973",
        "meta_object_id": "2025-271R",
        "meta_epoch": "2025-12-04T14:46:28.363584",
        "meta_mean_motion": 15.82712657,
        "meta_eccentricity": 0.0011942,
        "meta_inclination": 53.1558,
        "meta_ra_of_asc_node": 227.0207,
        "meta_arg_of_pericenter": 219.0109,
        "meta_mean_anomaly": 141.0054,
        "meta_ephemeris_type": 0,
        "meta_classification_type": "U",
        "meta_norad_cat_id": 66632,
        "meta_element_set_no": 999,
        "meta_rev_at_epoch": 289,
        "meta_bstar": 0.0047215,
        "meta_mean_motion_dot": 0.0113708,
        "meta_mean_motion_ddot": 0,
        "tle_line1": "1 66632U 25271R   25338.61560606  .01137080  00000+0  47215-2 0  9991",
        "tle_line2": "2 66632  53.1558 227.0207 0011942 219.0109 141.0054 15.82712657  2899"
      },
      "geometry": {
        "type": "Point",
        "coordinates": [
          165.6359796284562,
          -48.98004290325849
        ]
      }
    },
    {
      "type": "Feature",
      "properties": {
        "norad_id": 66633,
        "name": "STARLINK-35948",
        "group": "last-30-days",
        "lat": -49.0381599030598,
        "lon": 165.43451868465985,
        "alt_km": 328.6882771509545,
        "timestamp": "2025-12-04T23:34:04.492294+00:00",
        "meta_object_name": "STARLINK-35948",
        "meta_object_id": "2025-271S",
        "meta_epoch": "2025-12-04T07:11:12.702048",
        "meta_mean_motion": 15.81911377,
        "meta_eccentricity": 0.0001739,
        "meta_inclination": 53.156,
        "meta_ra_of_asc_node": 228.6031,
        "meta_arg_of_pericenter": 302.1786,
        "meta_mean_anomaly": 57.9069,
        "meta_ephemeris_type": 0,
        "meta_classification_type": "U",
        "meta_norad_cat_id": 66633,
        "meta_element_set_no": 999,
        "meta_rev_at_epoch": 288,
        "meta_bstar": -9.8825e-05,
        "meta_mean_motion_dot": -0.0002113,
        "meta_mean_motion_ddot": 0,
        "tle_line1": "1 66633U 25271S   25338.29945257 -.00021130  00000+0 -98825-4 0  9999",
        "tle_line2": "2 66633  53.1560 228.6031 0001739 302.1786  57.9069 15.81911377  2882"
      },
      "geometry": {
        "type": "Point",
        "coordinates": [
          165.43451868465985,
          -49.0381599030598
        ]
      }
    },
    {
      "type": "Feature",
      "properties": {
        "norad_id": 66634,
        "name": "STARLINK-35967",
        "group": "last-30-days",
        "lat": -52.6673375759966,
        "lon": 145.74871817434743,
        "alt_km": 382.94656717192083,
        "timestamp": "2025-12-04T23:34:04.492305+00:00",
        "meta_object_name": "STARLINK-35967",
        "meta_object_id": "2025-271T",
        "meta_epoch": "2025-12-04T16:17:20.200128",
        "meta_mean_motion": 15.74398593,
        "meta_eccentricity": 0.003543,
        "meta_inclination": 53.1568,
        "meta_ra_of_asc_node": 226.7021,
        "meta_arg_of_pericenter": 33.0196,
        "meta_mean_anomaly": 327.3026,
        "meta_ephemeris_type": 0,
        "meta_classification_type": "U",
        "meta_norad_cat_id": 66634,
        "meta_element_set_no": 999,
        "meta_rev_at_epoch": 290,
        "meta_bstar": -0.07605,
        "meta_mean_motion_dot": -0.09405874,
        "meta_mean_motion_ddot": 0,
        "tle_line1": "1 66634U 25271T   25338.67870602 -.09405874  00000+0 -76050-1 0  9996",
        "tle_line2": "2 66634  53.1568 226.7021 0035430  33.0196 327.3026 15.74398593  2900"
      },
      "geometry": {
        "type": "Point",
        "coordinates": [
          145.74871817434743,
          -52.6673375759966
        ]
      }
    },
    {
      "type": "Feature",
      "properties": {
        "norad_id": 66635,
        "name": "STARLINK-35955",
        "group": "last-30-days",
        "lat": -45.311078885941185,
        "lon": 175.8673883363871,
        "alt_km": 323.6249127959045,
        "timestamp": "2025-12-04T23:34:04.492315+00:00",
        "meta_object_name": "STARLINK-35955",
        "meta_object_id": "2025-271U",
        "meta_epoch": "2025-12-04T04:08:02.562432",
        "meta_mean_motion": 15.81682042,
        "meta_eccentricity": 0.00049906,
        "meta_inclination": 53.1555,
        "meta_ra_of_asc_node": 229.232,
        "meta_arg_of_pericenter": 47.5506,
        "meta_mean_anomaly": 312.5938,
        "meta_ephemeris_type": 0,
        "meta_classification_type": "U",
        "meta_norad_cat_id": 66635,
        "meta_element_set_no": 999,
        "meta_rev_at_epoch": 286,
        "meta_bstar": 0.0075810547,
        "meta_mean_motion_dot": 0.0176083,
        "meta_mean_motion_ddot": 0,
        "tle_line1": "1 66635U 25271U   25338.17225188  .01760830  00000+0  75811-2 0  9996",
        "tle_line2": "2 66635  53.1555 229.2320 0004990  47.5506 312.5938 15.81682042  2865"
      },
      "geometry": {
        "type": "Point",
        "coordinates": [
          175.8673883363871,
          -45.311078885941185
        ]
      }
    },
    {
      "type": "Feature",
      "properties": {
        "norad_id": 66636,
        "name": "STARLINK-35968",
        "group": "last-30-days",
        "lat": -45.520962981622674,
        "lon": 175.37683688812646,
        "alt_km": 326.6529759882724,
        "timestamp": "2025-12-04T23:34:04.492325+00:00",
        "meta_object_name": "STARLINK-35968",
        "meta_object_id": "2025-271V",
        "meta_epoch": "2025-12-04T16:15:21.242016",
        "meta_mean_motion": 15.82289404,
        "meta_eccentricity": 0.0009802,
        "meta_inclination": 53.1552,
        "meta_ra_of_asc_node": 226.6934,
        "meta_arg_of_pericenter": 207.5045,
        "meta_mean_anomaly": 152.546,
        "meta_ephemeris_type": 0,
        "meta_classification_type": "U",
        "meta_norad_cat_id": 66636,
        "meta_element_set_no": 999,
        "meta_rev_at_epoch": 294,
        "meta_bstar": 0.0043613,
        "meta_mean_motion_dot": 0.01037255,
        "meta_mean_motion_ddot": 0,
        "tle_line1": "1 66636U 25271V   25338.67732919  .01037255  00000+0  43613-2 0  9990",
        "tle_line2": "2 66636  53.1552 226.6934 0009802 207.5045 152.5460 15.82289404  2945"
      },
      "geometry": {
        "type": "Point",
        "coordinates": [
          175.37683688812646,
          -45.520962981622674
        ]
      }
    },
    {
      "type": "Feature",
      "properties": {
        "norad_id": 66637,
        "name": "STARLINK-35953",
        "group": "last-30-days",
        "lat": -46.16425076675326,
        "lon": 173.81319215502927,
        "alt_km": 333.4014587317042,
        "timestamp": "2025-12-04T23:34:04.492335+00:00",
        "meta_object_name": "STARLINK-35953",
        "meta_object_id": "2025-271W",
        "meta_epoch": "2025-12-04T10:11:02.535360",
        "meta_mean_motion": 15.81154634,
        "meta_eccentricity": 0.0001576,
        "meta_inclination": 53.1554,
        "meta_ra_of_asc_node": 227.9588,
        "meta_arg_of_pericenter": 20.6444,
        "meta_mean_anomaly": 339.4642,
        "meta_ephemeris_type": 0,
        "meta_classification_type": "U",
        "meta_norad_cat_id": 66637,
        "meta_element_set_no": 999,
        "meta_rev_at_epoch": 290,
        "meta_bstar": -0.0025393,
        "meta_mean_motion_dot": -0.00481281,
        "meta_mean_motion_ddot": 0,
        "tle_line1": "1 66637U 25271W   25338.42433490 -.00481281  00000+0 -25393-2 0  9994",
        "tle_line2": "2 66637  53.1554 227.9588 0001576  20.6444 339.4642 15.81154634  2903"
      },
      "geometry": {
        "type": "Point",
        "coordinates": [
          173.81319215502927,
          -46.16425076675326
        ]
      }
    }
  ]
}